ORBCOMM FM115 [+]       
1 41186U 15081H   24037.64051377  .00001102  00000+0  26111-3 0  9991
2 41186  46.9975 237.0707 0001080 281.9412  78.1353 14.60332329435141
ORBCOMM FM108 [+]       
1 41187U 15081J   24037.83492465  .00001402  00000+0  35134-3 0  9998
2 41187  47.0052 287.5081 0002459 203.3237 156.7536 14.56259064434402
ORBCOMM FM117 [+]       
1 41188U 15081K   24037.80084748  .00001373  00000+0  34475-3 0  9991
2 41188  47.0010 286.5947 0003072 212.7215 147.3479 14.56262751434442
ORBCOMM FM116 [+]       
1 41189U 15081L   24037.92753087  .00001617  00000+0  39933-3 0  9999
2 41189  47.0035  15.8100 0003166 298.4576  61.5990 14.56265861433279
